format  = 'OEF2.0'       ! file format
rectype = 'ML'           ! record type (1L/ML)
refsys  = ECLM J2000     ! default reference system
END_OF_HEADER
99942
! Keplerian elements: a, e, i, long. node, arg. peric., mean anomaly
 KEP   9.2238031994461067E-01  1.9116633443039491E-01   3.3409585628721 203.8996389609976 126.6728440132719  3.1280546650423054E+02
 MJD     61000.000000000 TDT
 MAG  18.893  0.150
! Non-gravitational parameters: model used, number of model parameters, dimension, list of solve for parameters to be currently determined
 LSP   1  2    7    2
! Vector of dynamical parameters
! Area-to-mass ratio [m^2/t], Yarkovsky parameter [1E-10 au/day^2]
 NGR   0.00000000000000E+00 -2.90010329254113E-04
! PERIHELION   7.4605225523006458E-01
! APHELION   1.0987083846591568E+00
! ANODE  -1.2231621064805415E-03
! DNODE  -1.9912579798553132E-01
! MOID   3.6059301134516361E-04
! PERIOD   3.2356643889244879E+02
! PHA T
! VINFTY     5.4648634949464
! U_PAR 0.0
! ORB_TYPE Aten  
! SNR A2   124.83
! da/dt [1E-4 au/My] -1.3309618E+01  +/-   1.0662046E-01
! RMS    1.36838E-10   1.39518E-09   1.55237E-07   7.58900E-06   8.15478E-06   9.36391E-07   2.32321E-06
 COV   1.872450948593285E-20 -1.547686820205464E-19 -1.284116107936019E-17
 COV   5.016591210200272E-16 -6.179482765437031E-16  8.886083073964168E-17
 COV   2.980949623305196E-16  1.946528366270426E-18  6.749012604590127E-17
 COV  -1.912185870105660E-15  3.087928523612876E-15 -8.110122497241906E-16
 COV  -1.861640124803363E-15  2.409856530455565E-14 -1.116969646055075E-12
 COV   1.220958609568700E-12 -1.310082809857197E-13 -2.221413721141337E-13
 COV   5.759293595801607E-11 -6.159354021246044E-11  5.795677266287973E-12
 COV   9.621133154671659E-12  6.650043115161485E-11 -6.587702467988281E-12
 COV  -1.121318562369277E-11  8.768289754108334E-13  1.271030426415200E-12
 COV   5.397303230031555E-12
 COR   1.000000000000000E+00 -8.106763266920971E-01 -6.045099799267188E-01
 COR   4.830798011434269E-01 -5.537766885804378E-01  6.935019679123552E-01
 COR   9.376937100837494E-01  1.000000000000000E+00  3.116120739588781E-01
 COR  -1.805989109055174E-01  2.714092470143512E-01 -6.207826907354116E-01
 COR  -5.743504337179438E-01  9.999999999999998E-01 -9.481153285908001E-01
 COR   9.644797576970862E-01 -9.012508923375591E-01 -6.159499822696156E-01
 COR   9.999999999999998E-01 -9.952640725542888E-01  8.155716820798867E-01
 COR   5.456990615628067E-01  1.000000000000000E+00 -8.627089412347313E-01
 COR  -5.918727861904113E-01  9.999999999999998E-01  5.842652965846804E-01
 COR   9.999999999999998E-01
